[{"OBJECT_NAME":"ONEWEB-0112","OBJECT_ID":"2021-025K","EPOCH":"2025-12-26T06:18:18.705600","MEAN_MOTION":13.13469904,"ECCENTRICITY":0.00017794,"INCLINATION":87.8985,"RA_OF_ASC_NODE":354.566,"ARG_OF_PERICENTER":89.7064,"MEAN_ANOMALY":270.4269,"EPHEMERIS_TYPE":0,"CLASSIFICATION_TYPE":"U","NORAD_CAT_ID":48051,"ELEMENT_SET_NO":999,"REV_AT_EPOCH":23089,"BSTAR":0.00010053242,"MEAN_MOTION_DOT":4.9e-7,"MEAN_MOTION_DDOT":0},{"OBJECT_NAME":"ONEWEB-0156","OBJECT_ID":"2021-025L","EPOCH":"2025-12-26T06:30:31.432896","MEAN_MOTION":13.13470634,"ECCENTRICITY":0.00016108,"INCLINATION":87.8986,"RA_OF_ASC_NODE":354.5753,"ARG_OF_PERICENTER":90.5283,"MEAN_ANOMALY":269.603,"EPHEMERIS_TYPE":0,"CLASSIFICATION_TYPE":"U","NORAD_CAT_ID":48052,"ELEMENT_SET_NO":999,"REV_AT_EPOCH":23087,"BSTAR":0.00038026382,"MEAN_MOTION_DOT":1.52e-6,"MEAN_MOTION_DDOT":0},{"OBJECT_NAME":"ONEWEB-0161","OBJECT_ID":"2021-025M","EPOCH":"2025-12-26T05:53:57.010272","MEAN_MOTION":13.13468317,"ECCENTRICITY":0.0001622,"INCLINATION":87.898,"RA_OF_ASC_NODE":354.5952,"ARG_OF_PERICENTER":90.504,"MEAN_ANOMALY":269.6275,"EPHEMERIS_TYPE":0,"CLASSIFICATION_TYPE":"U","NORAD_CAT_ID":48053,"ELEMENT_SET_NO":999,"REV_AT_EPOCH":23080,"BSTAR":-0.00069364503,"MEAN_MOTION_DOT":-2.41e-6,"MEAN_MOTION_DDOT":0},{"OBJECT_NAME":"ONEWEB-0158","OBJECT_ID":"2021-025N","EPOCH":"2025-12-26T06:45:08.793792","MEAN_MOTION":13.13468728,"ECCENTRICITY":0.00019761,"INCLINATION":87.8988,"RA_OF_ASC_NODE":354.5732,"ARG_OF_PERICENTER":80.1454,"MEAN_ANOMALY":279.9898,"EPHEMERIS_TYPE":0,"CLASSIFICATION_TYPE":"U","NORAD_CAT_ID":48054,"ELEMENT_SET_NO":999,"REV_AT_EPOCH":23093,"BSTAR":0.00079997224,"MEAN_MOTION_DOT":3.05e-6,"MEAN_MOTION_DDOT":0},{"OBJECT_NAME":"ONEWEB-0157","OBJECT_ID":"2021-025P","EPOCH":"2025-12-26T00:02:55.533696","MEAN_MOTION":13.13467844,"ECCENTRICITY":0.00013985,"INCLINATION":87.8985,"RA_OF_ASC_NODE":354.6342,"ARG_OF_PERICENTER":90.4385,"MEAN_ANOMALY":269.6905,"EPHEMERIS_TYPE":0,"CLASSIFICATION_TYPE":"U","NORAD_CAT_ID":48055,"ELEMENT_SET_NO":999,"REV_AT_EPOCH":23083,"BSTAR":-0.00016176805,"MEAN_MOTION_DOT":-4.6e-7,"MEAN_MOTION_DDOT":0},{"OBJECT_NAME":"ONEWEB-0162","OBJECT_ID":"2021-025Q","EPOCH":"2025-12-26T06:47:23.499168","MEAN_MOTION":13.13469102,"ECCENTRICITY":0.00017685,"INCLINATION":87.8986,"RA_OF_ASC_NODE":354.5813,"ARG_OF_PERICENTER":93.0933,"MEAN_ANOMALY":267.0399,"EPHEMERIS_TYPE":0,"CLASSIFICATION_TYPE":"U","NORAD_CAT_ID":48056,"ELEMENT_SET_NO":999,"REV_AT_EPOCH":23084,"BSTAR":0.00090240748,"MEAN_MOTION_DOT":3.42e-6,"MEAN_MOTION_DDOT":0},{"OBJECT_NAME":"ONEWEB-0155","OBJECT_ID":"2021-025R","EPOCH":"2025-12-25T23:38:33.440928","MEAN_MOTION":13.13469518,"ECCENTRICITY":0.0001577,"INCLINATION":87.899,"RA_OF_ASC_NODE":354.6444,"ARG_OF_PERICENTER":80.4819,"MEAN_ANOMALY":279.6488,"EPHEMERIS_TYPE":0,"CLASSIFICATION_TYPE":"U","NORAD_CAT_ID":48057,"ELEMENT_SET_NO":999,"REV_AT_EPOCH":23094,"BSTAR":0.0010145,"MEAN_MOTION_DOT":3.83e-6,"MEAN_MOTION_DDOT":0},{"OBJECT_NAME":"ONEWEB-0149","OBJECT_ID":"2021-025S","EPOCH":"2025-12-26T05:39:18.995328","MEAN_MOTION":13.13467695,"ECCENTRICITY":0.00018172,"INCLINATION":87.8985,"RA_OF_ASC_NODE":354.589,"ARG_OF_PERICENTER":94.0728,"MEAN_ANOMALY":266.0609,"EPHEMERIS_TYPE":0,"CLASSIFICATION_TYPE":"U","NORAD_CAT_ID":48058,"ELEMENT_SET_NO":999,"REV_AT_EPOCH":23078,"BSTAR":-0.00021762573,"MEAN_MOTION_DOT":-6.7e-7,"MEAN_MOTION_DDOT":0},{"OBJECT_NAME":"ONEWEB-0148","OBJECT_ID":"2021-025T","EPOCH":"2025-12-26T06:35:23.400960","MEAN_MOTION":13.13468981,"ECCENTRICITY":0.00017723,"INCLINATION":87.8978,"RA_OF_ASC_NODE":354.5999,"ARG_OF_PERICENTER":108.7361,"MEAN_ANOMALY":251.3961,"EPHEMERIS_TYPE":0,"CLASSIFICATION_TYPE":"U","NORAD_CAT_ID":48059,"ELEMENT_SET_NO":999,"REV_AT_EPOCH":23091,"BSTAR":0.00052555615,"MEAN_MOTION_DOT":2.05e-6,"MEAN_MOTION_DDOT":0},{"OBJECT_NAME":"ONEWEB-0160","OBJECT_ID":"2021-025U","EPOCH":"2025-12-26T06:59:46.621248","MEAN_MOTION":13.13468414,"ECCENTRICITY":0.00024962,"INCLINATION":87.8979,"RA_OF_ASC_NODE":354.5937,"ARG_OF_PERICENTER":81.2729,"MEAN_ANOMALY":278.8683,"EPHEMERIS_TYPE":0,"CLASSIFICATION_TYPE":"U","NORAD_CAT_ID":48060,"ELEMENT_SET_NO":999,"REV_AT_EPOCH":23086,"BSTAR":0.00085507915,"MEAN_MOTION_DOT":3.25e-6,"MEAN_MOTION_DDOT":0},{"OBJECT_NAME":"ONEWEB-0163","OBJECT_ID":"2021-025V","EPOCH":"2025-12-26T01:08:45.690720","MEAN_MOTION":13.13469907,"ECCENTRICITY":0.00014663,"INCLINATION":87.8983,"RA_OF_ASC_NODE":354.6292,"ARG_OF_PERICENTER":88.248,"MEAN_ANOMALY":271.8817,"EPHEMERIS_TYPE":0,"CLASSIFICATION_TYPE":"U","NORAD_CAT_ID":48061,"ELEMENT_SET_NO":999,"REV_AT_EPOCH":23095,"BSTAR":0.00048430765,"MEAN_MOTION_DOT":1.9e-6,"MEAN_MOTION_DDOT":0},{"OBJECT_NAME":"ONEWEB-0159","OBJECT_ID":"2021-025W","EPOCH":"2025-12-26T06:25:38.001216","MEAN_MOTION":13.13469031,"ECCENTRICITY":0.00015712,"INCLINATION":87.8991,"RA_OF_ASC_NODE":354.5699,"ARG_OF_PERICENTER":93.1165,"MEAN_ANOMALY":267.0144,"EPHEMERIS_TYPE":0,"CLASSIFICATION_TYPE":"U","NORAD_CAT_ID":48062,"ELEMENT_SET_NO":999,"REV_AT_EPOCH":23090,"BSTAR":5.57001e-5,"MEAN_MOTION_DOT":3.3e-7,"MEAN_MOTION_DDOT":0},{"OBJECT_NAME":"ONEWEB-0164","OBJECT_ID":"2021-025X","EPOCH":"2025-12-26T00:29:44.769120","MEAN_MOTION":13.13469812,"ECCENTRICITY":0.00018214,"INCLINATION":87.8985,"RA_OF_ASC_NODE":354.6254,"ARG_OF_PERICENTER":86.4017,"MEAN_ANOMALY":273.7321,"EPHEMERIS_TYPE":0,"CLASSIFICATION_TYPE":"U","NORAD_CAT_ID":48063,"ELEMENT_SET_NO":999,"REV_AT_EPOCH":23085,"BSTAR":-0.00078985668,"MEAN_MOTION_DOT":-2.76e-6,"MEAN_MOTION_DDOT":0},{"OBJECT_NAME":"ONEWEB-0167","OBJECT_ID":"2021-025Y","EPOCH":"2025-12-26T01:09:59.372640","MEAN_MOTION":13.13469937,"ECCENTRICITY":0.0001309,"INCLINATION":87.8972,"RA_OF_ASC_NODE":354.6466,"ARG_OF_PERICENTER":64.5939,"MEAN_ANOMALY":295.5326,"EPHEMERIS_TYPE":0,"CLASSIFICATION_TYPE":"U","NORAD_CAT_ID":48064,"ELEMENT_SET_NO":999,"REV_AT_EPOCH":23084,"BSTAR":0.00048103336,"MEAN_MOTION_DOT":1.88e-6,"MEAN_MOTION_DDOT":0},{"OBJECT_NAME":"ONEWEB-0166","OBJECT_ID":"2021-025Z","EPOCH":"2025-12-25T23:53:10.444128","MEAN_MOTION":13.13467953,"ECCENTRICITY":0.00017079,"INCLINATION":87.8985,"RA_OF_ASC_NODE":354.6141,"ARG_OF_PERICENTER":93.3621,"MEAN_ANOMALY":266.7703,"EPHEMERIS_TYPE":0,"CLASSIFICATION_TYPE":"U","NORAD_CAT_ID":48065,"ELEMENT_SET_NO":999,"REV_AT_EPOCH":23091,"BSTAR":0.00039637903,"MEAN_MOTION_DOT":1.57e-6,"MEAN_MOTION_DDOT":0},{"OBJECT_NAME":"ONEWEB-0151","OBJECT_ID":"2021-025AA","EPOCH":"2025-12-26T01:45:18.611712","MEAN_MOTION":13.13467245,"ECCENTRICITY":0.00016935,"INCLINATION":87.8984,"RA_OF_ASC_NODE":354.625,"ARG_OF_PERICENTER":82.9625,"MEAN_ANOMALY":277.1697,"EPHEMERIS_TYPE":0,"CLASSIFICATION_TYPE":"U","NORAD_CAT_ID":48066,"ELEMENT_SET_NO":999,"REV_AT_EPOCH":23086,"BSTAR":0.00023502354,"MEAN_MOTION_DOT":9.9e-7,"MEAN_MOTION_DDOT":0},{"OBJECT_NAME":"ONEWEB-0170","OBJECT_ID":"2021-025AB","EPOCH":"2025-12-25T22:18:05.782176","MEAN_MOTION":13.13467871,"ECCENTRICITY":0.0002042,"INCLINATION":87.898,"RA_OF_ASC_NODE":354.658,"ARG_OF_PERICENTER":73.3587,"MEAN_ANOMALY":286.7766,"EPHEMERIS_TYPE":0,"CLASSIFICATION_TYPE":"U","NORAD_CAT_ID":48067,"ELEMENT_SET_NO":999,"REV_AT_EPOCH":23080,"BSTAR":-0.00020271,"MEAN_MOTION_DOT":-6.1e-7,"MEAN_MOTION_DDOT":0}]
