ONEWEB-0112             
1 48051U 21025K   25360.26271650  .00000049  00000+0  10053-3 0  9997
2 48051  87.8985 354.5660 0001779  89.7064 270.4269 13.13469904230894
ONEWEB-0156             
1 48052U 21025L   25360.27119714  .00000152  00000+0  38026-3 0  9996
2 48052  87.8986 354.5753 0001610  90.5283 269.6030 13.13470634230872
ONEWEB-0161             
1 48053U 21025M   25360.24579873 -.00000241  00000+0 -69365-3 0  9991
2 48053  87.8980 354.5952 0001622  90.5040 269.6275 13.13468317230801
ONEWEB-0158             
1 48054U 21025N   25360.28135178  .00000305  00000+0  79997-3 0  9993
2 48054  87.8988 354.5732 0001976  80.1454 279.9898 13.13468728230937
ONEWEB-0157             
1 48055U 21025P   25360.00203164 -.00000046  00000+0 -16177-3 0  9990
2 48055  87.8985 354.6342 0001398  90.4385 269.6905 13.13467844230830
ONEWEB-0162             
1 48056U 21025Q   25360.28291087  .00000342  00000+0  90241-3 0  9993
2 48056  87.8986 354.5813 0001768  93.0933 267.0399 13.13469102230842
ONEWEB-0155             
1 48057U 21025R   25359.98510927  .00000383  00000+0  10145-2 0  9995
2 48057  87.8990 354.6444 0001577  80.4819 279.6488 13.13469518230940
ONEWEB-0149             
1 48058U 21025S   25360.23563652 -.00000067  00000+0 -21763-3 0  9999
2 48058  87.8985 354.5890 0001817  94.0728 266.0609 13.13467695230787
ONEWEB-0148             
1 48059U 21025T   25360.27457640  .00000205  00000+0  52556-3 0  9999
2 48059  87.8978 354.5999 0001772 108.7361 251.3961 13.13468981230918
ONEWEB-0160             
1 48060U 21025U   25360.29151182  .00000325  00000+0  85508-3 0  9991
2 48060  87.8979 354.5937 0002496  81.2729 278.8683 13.13468414230860
ONEWEB-0163             
1 48061U 21025V   25360.04775105  .00000190  00000+0  48431-3 0  9996
2 48061  87.8983 354.6292 0001466  88.2480 271.8817 13.13469907230958
ONEWEB-0159             
1 48062U 21025W   25360.26780094  .00000033  00000+0  55700-4 0  9998
2 48062  87.8991 354.5699 0001571  93.1165 267.0144 13.13469031230903
ONEWEB-0164             
1 48063U 21025X   25360.02065705 -.00000276  00000+0 -78986-3 0  9999
2 48063  87.8985 354.6254 0001821  86.4017 273.7321 13.13469812230856
ONEWEB-0167             
1 48064U 21025Y   25360.04860385  .00000188  00000+0  48103-3 0  9997
2 48064  87.8972 354.6466 0001309  64.5939 295.5326 13.13469937230843
ONEWEB-0166             
1 48065U 21025Z   25359.99525977  .00000157  00000+0  39638-3 0  9994
2 48065  87.8985 354.6141 0001707  93.3621 266.7703 13.13467953230911
ONEWEB-0151             
1 48066U 21025AA  25360.07313208  .00000099  00000+0  23502-3 0  9996
2 48066  87.8984 354.6250 0001693  82.9625 277.1697 13.13467245230860
ONEWEB-0170             
1 48067U 21025AB  25359.92923359 -.00000061  00000+0 -20271-3 0  9994
2 48067  87.8980 354.6580 0002042  73.3587 286.7766 13.13467871230805
